{
  "type": "FeatureCollection",
  "features": [
    {
      "type": "Feature",
      "properties": {
        "norad_id": 66635,
        "name": "STARLINK-35955",
        "group": "last-30-days",
        "lat": 29.58232794928426,
        "lon": 2.167119896035359,
        "alt_km": 360.60944318295606,
        "timestamp": "2025-12-08T13:49:30.577934+00:00",
        "meta_object_name": "STARLINK-35955",
        "meta_object_id": "2025-271U",
        "meta_epoch": "2025-12-08T06:00:02.999808",
        "meta_mean_motion": 15.69410708,
        "meta_eccentricity": 9.354e-05,
        "meta_inclination": 53.159,
        "meta_ra_of_asc_node": 208.9619,
        "meta_arg_of_pericenter": 89.1024,
        "meta_mean_anomaly": 10.5502,
        "meta_ephemeris_type": 0,
        "meta_classification_type": "U",
        "meta_norad_cat_id": 66635,
        "meta_element_set_no": 999,
        "meta_rev_at_epoch": 352,
        "meta_bstar": -0.018686977,
        "meta_mean_motion_dot": -0.01974843,
        "meta_mean_motion_ddot": 0,
        "tle_line1": "1 66635U 25271U   25342.25003472 -.01974843  00000+0 -18687-1 0  9990",
        "tle_line2": "2 66635  53.1590 208.9619 0000935  89.1024  10.5502 15.69410708  3521"
      },
      "geometry": {
        "type": "Point",
        "coordinates": [
          2.167119896035359,
          29.58232794928426
        ]
      }
    },
    {
      "type": "Feature",
      "properties": {
        "norad_id": 66636,
        "name": "STARLINK-35968",
        "group": "last-30-days",
        "lat": 28.184243999350212,
        "lon": 3.665062919316082,
        "alt_km": 360.88985822880386,
        "timestamp": "2025-12-08T13:49:30.577944+00:00",
        "meta_object_name": "STARLINK-35968",
        "meta_object_id": "2025-271V",
        "meta_epoch": "2025-12-08T06:00:02.999808",
        "meta_mean_motion": 15.69401745,
        "meta_eccentricity": 0.00011044,
        "meta_inclination": 53.1593,
        "meta_ra_of_asc_node": 208.9576,
        "meta_arg_of_pericenter": 72.5754,
        "meta_mean_anomaly": 28.9958,
        "meta_ephemeris_type": 0,
        "meta_classification_type": "U",
        "meta_norad_cat_id": 66636,
        "meta_element_set_no": 999,
        "meta_rev_at_epoch": 352,
        "meta_bstar": -0.018537895,
        "meta_mean_motion_dot": -0.0196041,
        "meta_mean_motion_ddot": 0,
        "tle_line1": "1 66636U 25271V   25342.25003472 -.01960410  00000+0 -18538-1 0  9991",
        "tle_line2": "2 66636  53.1593 208.9576 0001104  72.5754  28.9958 15.69401745  3521"
      },
      "geometry": {
        "type": "Point",
        "coordinates": [
          3.665062919316082,
          28.184243999350212
        ]
      }
    },
    {
      "type": "Feature",
      "properties": {
        "norad_id": 66637,
        "name": "STARLINK-35953",
        "group": "last-30-days",
        "lat": 26.771410042041538,
        "lon": 5.123191881137532,
        "alt_km": 361.07776248884875,
        "timestamp": "2025-12-08T13:49:30.577954+00:00",
        "meta_object_name": "STARLINK-35953",
        "meta_object_id": "2025-271W",
        "meta_epoch": "2025-12-08T06:00:02.999808",
        "meta_mean_motion": 15.69411388,
        "meta_eccentricity": 9.461e-05,
        "meta_inclination": 53.159,
        "meta_ra_of_asc_node": 208.9543,
        "meta_arg_of_pericenter": 91.0595,
        "meta_mean_anomaly": 12.4244,
        "meta_ephemeris_type": 0,
        "meta_classification_type": "U",
        "meta_norad_cat_id": 66637,
        "meta_element_set_no": 999,
        "meta_rev_at_epoch": 352,
        "meta_bstar": -0.018676279,
        "meta_mean_motion_dot": -0.01973903,
        "meta_mean_motion_ddot": 0,
        "tle_line1": "1 66637U 25271W   25342.25003472 -.01973903  00000+0 -18676-1 0  9996",
        "tle_line2": "2 66637  53.1590 208.9543 0000946  91.0595  12.4244 15.69411388  3525"
      },
      "geometry": {
        "type": "Point",
        "coordinates": [
          5.123191881137532,
          26.771410042041538
        ]
      }
    },
    {
      "type": "Feature",
      "properties": {
        "norad_id": 66638,
        "name": "STARLINK-35972",
        "group": "last-30-days",
        "lat": 25.344903661266837,
        "lon": 6.544033490591394,
        "alt_km": 361.4375948128163,
        "timestamp": "2025-12-08T13:49:30.577966+00:00",
        "meta_object_name": "STARLINK-35972",
        "meta_object_id": "2025-271X",
        "meta_epoch": "2025-12-08T06:00:02.999808",
        "meta_mean_motion": 15.69409806,
        "meta_eccentricity": 8.627e-05,
        "meta_inclination": 53.1592,
        "meta_ra_of_asc_node": 208.9503,
        "meta_arg_of_pericenter": 83.5468,
        "meta_mean_anomaly": 21.8508,
        "meta_ephemeris_type": 0,
        "meta_classification_type": "U",
        "meta_norad_cat_id": 66638,
        "meta_element_set_no": 999,
        "meta_rev_at_epoch": 352,
        "meta_bstar": -0.018616796,
        "meta_mean_motion_dot": -0.0196818,
        "meta_mean_motion_ddot": 0,
        "tle_line1": "1 66638U 25271X   25342.25003472 -.01968180  00000+0 -18617-1 0  9993",
        "tle_line2": "2 66638  53.1592 208.9503 0000862  83.5468  21.8508 15.69409806  3525"
      },
      "geometry": {
        "type": "Point",
        "coordinates": [
          6.544033490591394,
          25.344903661266837
        ]
      }
    },
    {
      "type": "Feature",
      "properties": {
        "norad_id": 66639,
        "name": "STARLINK-35908",
        "group": "last-30-days",
        "lat": 23.900268760029846,
        "lon": 7.935271439926481,
        "alt_km": 361.63967902295644,
        "timestamp": "2025-12-08T13:49:30.577975+00:00",
        "meta_object_name": "STARLINK-35908",
        "meta_object_id": "2025-271Y",
        "meta_epoch": "2025-12-08T06:00:02.999808",
        "meta_mean_motion": 15.69410924,
        "meta_eccentricity": 9.39e-05,
        "meta_inclination": 53.1591,
        "meta_ra_of_asc_node": 208.9458,
        "meta_arg_of_pericenter": 87.0431,
        "meta_mean_anomaly": 20.2764,
        "meta_ephemeris_type": 0,
        "meta_classification_type": "U",
        "meta_norad_cat_id": 66639,
        "meta_element_set_no": 999,
        "meta_rev_at_epoch": 352,
        "meta_bstar": -0.018687243,
        "meta_mean_motion_dot": -0.01974886,
        "meta_mean_motion_ddot": 0,
        "tle_line1": "1 66639U 25271Y   25342.25003472 -.01974886  00000+0 -18687-1 0  9991",
        "tle_line2": "2 66639  53.1591 208.9458 0000939  87.0431  20.2764 15.69410924  3528"
      },
      "geometry": {
        "type": "Point",
        "coordinates": [
          7.935271439926481,
          23.900268760029846
        ]
      }
    },
    {
      "type": "Feature",
      "properties": {
        "norad_id": 66640,
        "name": "STARLINK-35921",
        "group": "last-30-days",
        "lat": 22.44667400172945,
        "lon": 9.293610950605443,
        "alt_km": 361.9045129907381,
        "timestamp": "2025-12-08T13:49:30.577985+00:00",
        "meta_object_name": "STARLINK-35921",
        "meta_object_id": "2025-271Z",
        "meta_epoch": "2025-12-08T06:00:02.999808",
        "meta_mean_motion": 15.69408615,
        "meta_eccentricity": 0.00010314,
        "meta_inclination": 53.1591,
        "meta_ra_of_asc_node": 208.9424,
        "meta_arg_of_pericenter": 75.204,
        "meta_mean_anomaly": 34.0316,
        "meta_ephemeris_type": 0,
        "meta_classification_type": "U",
        "meta_norad_cat_id": 66640,
        "meta_element_set_no": 999,
        "meta_rev_at_epoch": 352,
        "meta_bstar": -0.018641926,
        "meta_mean_motion_dot": -0.01970562,
        "meta_mean_motion_ddot": 0,
        "tle_line1": "1 66640U 25271Z   25342.25003472 -.01970562  00000+0 -18642-1 0  9991",
        "tle_line2": "2 66640  53.1591 208.9424 0001031  75.2040  34.0316 15.69408615  3522"
      },
      "geometry": {
        "type": "Point",
        "coordinates": [
          9.293610950605443,
          22.44667400172945
        ]
      }
    },
    {
      "type": "Feature",
      "properties": {
        "norad_id": 66641,
        "name": "STARLINK-35923",
        "group": "last-30-days",
        "lat": 16.531047154542517,
        "lon": 14.46265166682201,
        "alt_km": 362.8135035058194,
        "timestamp": "2025-12-08T13:49:30.577996+00:00",
        "meta_object_name": "STARLINK-35923",
        "meta_object_id": "2025-271AA",
        "meta_epoch": "2025-12-08T06:00:02.999808",
        "meta_mean_motion": 15.69409162,
        "meta_eccentricity": 0.00010367,
        "meta_inclination": 53.159,
        "meta_ra_of_asc_node": 208.9255,
        "meta_arg_of_pericenter": 88.0569,
        "meta_mean_anomaly": 28.8435,
        "meta_ephemeris_type": 0,
        "meta_classification_type": "U",
        "meta_norad_cat_id": 66641,
        "meta_element_set_no": 999,
        "meta_rev_at_epoch": 352,
        "meta_bstar": -0.018633323,
        "meta_mean_motion_dot": -0.01969803,
        "meta_mean_motion_ddot": 0,
        "tle_line1": "1 66641U 25271AA  25342.25003472 -.01969803  00000+0 -18633-1 0  9998",
        "tle_line2": "2 66641  53.1590 208.9255 0001036  88.0569  28.8435 15.69409162  3528"
      },
      "geometry": {
        "type": "Point",
        "coordinates": [
          14.46265166682201,
          16.531047154542517
        ]
      }
    }
  ]
}